{
    "links": {
        "self": "http://www.neowsapp.com/rest/v1/neo/3589592?api_key=iIulBulltgU6a56xZRHN4H3l9WmuAYTsLGpBGhQ2"
    },
    "id": "3589592",
    "neo_reference_id": "3589592",
    "name": "(2011 WU74)",
    "designation": "2011 WU74",
    "nasa_jpl_url": "http://ssd.jpl.nasa.gov/sbdb.cgi?sstr=3589592",
    "absolute_magnitude_h": 26.3,
    "estimated_diameter": {
        "kilometers": {
            "estimated_diameter_min": 0.0146067964,
            "estimated_diameter_max": 0.0326617897
        },
        "meters": {
            "estimated_diameter_min": 14.6067964271,
            "estimated_diameter_max": 32.6617897446
        },
        "miles": {
            "estimated_diameter_min": 0.0090762397,
            "estimated_diameter_max": 0.020295089
        },
        "feet": {
            "estimated_diameter_min": 47.92256199,
            "estimated_diameter_max": 107.1581062656
        }
    },
    "is_potentially_hazardous_asteroid": false,
    "close_approach_data": [
        {
            "close_approach_date": "2011-12-04",
            "close_approach_date_full": "2011-Dec-04 06:49",
            "epoch_date_close_approach": 1322981340000,
            "relative_velocity": {
                "kilometers_per_second": "18.4405110922",
                "kilometers_per_hour": "66385.8399319848",
                "miles_per_hour": "41249.5792621824"
            },
            "miss_distance": {
                "astronomical": "0.0086674052",
                "lunar": "3.3716206228",
                "kilometers": "1296625.356346924",
                "miles": "805685.6362945912"
            },
            "orbiting_body": "Moon"
        },
        {
            "close_approach_date": "2011-12-04",
            "close_approach_date_full": "2011-Dec-04 10:15",
            "epoch_date_close_approach": 1322993700000,
            "relative_velocity": {
                "kilometers_per_second": "17.5926091177",
                "kilometers_per_hour": "63333.3928235486",
                "miles_per_hour": "39352.9073352767"
            },
            "miss_distance": {
                "astronomical": "0.0107880649",
                "lunar": "4.1965572461",
                "kilometers": "1613871.530461763",
                "miles": "1002813.2679598094"
            },
            "orbiting_body": "Earth"
        },
        {
            "close_approach_date": "2088-04-26",
            "close_approach_date_full": "2088-Apr-26 01:01",
            "epoch_date_close_approach": 3733779660000,
            "relative_velocity": {
                "kilometers_per_second": "15.0996135676",
                "kilometers_per_hour": "54358.6088432797",
                "miles_per_hour": "33776.3255893146"
            },
            "miss_distance": {
                "astronomical": "0.1180927464",
                "lunar": "45.9380783496",
                "kilometers": "17666423.323890168",
                "miles": "10977406.4243655984"
            },
            "orbiting_body": "Earth"
        }
    ],
    "orbital_data": {
        "orbit_id": "6",
        "orbit_determination_date": "2019-07-19 05:25:36",
        "first_observation_date": "2011-11-30",
        "last_observation_date": "2011-12-02",
        "data_arc_in_days": 2,
        "observations_used": 24,
        "orbit_uncertainty": "8",
        "minimum_orbit_intersection": ".00397903",
        "jupiter_tisserand_invariant": "3.424",
        "epoch_osculation": "2455895.5",
        "eccentricity": ".6664383836716596",
        "semi_major_axis": "2.096273217151586",
        "inclination": "5.910838536753037",
        "ascending_node_longitude": "248.7978033103107",
        "orbital_period": "1108.588209594224",
        "perihelion_distance": ".699236282578893",
        "perihelion_argument": "256.4481652545045",
        "aphelion_distance": "3.493310151724279",
        "perihelion_time": "2455943.545917877334",
        "mean_anomaly": "344.3976958385916",
        "mean_motion": ".3247373523228887",
        "equinox": "J2000",
        "orbit_class": {
            "orbit_class_type": "APO",
            "orbit_class_description": "Near-Earth asteroid orbits which cross the Earth’s orbit similar to that of 1862 Apollo",
            "orbit_class_range": "a (semi-major axis) > 1.0 AU; q (perihelion) < 1.017 AU"
        }
    },
    "is_sentry_object": false
}